ONEWEB-0603             
1 54667U 22166AB  23232.11154870  .00000137  00000+0  30005-3 0  9995
2 54667  87.9190  89.4829 0001374  65.1459 294.9818 13.21827249 35591
ONEWEB-0604             
1 54668U 22166AC  23231.11487212  .00000044  00000+0  73883-4 0  9993
2 54668  87.9182  89.6837 0001099  70.6874 289.4379 13.21827311 35434
ONEWEB-0605             
1 54669U 22166AD  23232.16829693 -.00000175  00000+0 -45572-3 0  9993
2 54669  87.9146  89.4983 0001890  67.8269 292.3065 13.21824651 35642
ONEWEB-0606             
1 54670U 22166AE  23232.11466856 -.00000367  00000+0 -92065-3 0  9990
2 54670  87.9221  89.4855 0002061  88.1425 271.9945 13.21825969 35684
ONEWEB-0607             
1 54671U 22166AF  23232.15568436  .00000340  00000+0  79176-3 0  9999
2 54671  87.9177  89.4769 0001591  75.0473 285.0837 13.21822264 35663
ONEWEB-0608             
1 54672U 22166AG  23232.16199004  .00001790  00000+0  43001-2 0  9999
2 54672  87.9125  89.4759 0001659  58.5488 301.5808 13.21839077 35676
ONEWEB-0610             
1 54673U 22166AH  23231.15901114 -.00000171  00000+0 -44567-3 0  9994
2 54673  87.9194  89.6717 0001613  60.5943 299.5352 13.21824892 35453
ONEWEB-0611             
1 54674U 22166AJ  23232.13676982 -.00000004  00000+0 -40639-4 0  9998
2 54674  87.9190  89.4800 0002011  98.6565 261.4797 13.21825941 35576
